STARLINK-35698          
1 66481U 25262AB  26196.34412759  .00006983  00000+0  26302-3 0  9992
2 66481  43.0023 294.8837 0001744 266.2882  93.7771 15.27583890 38430
STARLINK-35648          
1 66482U 25262AC  26196.36211859  .00009375  00000+0  34969-3 0  9999
2 66482  42.9983 295.0140 0001851 279.8098  80.2545 15.27586993 38271
STARLINK-35654          
1 66483U 25262AD  26196.35184110  .00007213  00000+0  27141-3 0  9991
2 66483  42.9962 294.9375 0001639 264.7035  95.3630 15.27573454 38433
STARLINK-35371          
1 66484U 25262AE  26196.33785186  .00010364  00000+0  38559-3 0  9996
2 66484  43.0015 295.6948 0001427 263.8663  96.2026 15.27581895 38427
STARLINK-34774          
1 66485U 25263A   26196.72581370  .00007734  00000+0  29021-3 0  9991
2 66485  43.0011 347.3395 0001106 265.8270  94.2456 15.27587594 38488
STARLINK-34844          
1 66486U 25263B   26196.85529801  .00010692  00000+0  39733-3 0  9995
2 66486  43.0059 346.5892 0002116 278.2556  81.8055 15.27592473 38457
STARLINK-34733          
1 66487U 25263C   26196.78734448  .00010136  00000+0  37726-3 0  9996
2 66487  43.0024 346.9386 0001532 271.5917  88.4760 15.27588023 38496
STARLINK-35515          
1 66488U 25263D   26196.47198014  .00008629  00000+0  32274-3 0  9993
2 66488  43.0018 348.8687 0001641 275.2758  84.7907 15.27580266 38448
STARLINK-35696          
1 66489U 25263E   26196.81178085  .00013023  00000+0  48176-3 0  9990
2 66489  42.9871 347.1376 0004010  38.6065 321.5073 15.27587609 38495
STARLINK-35693          
1 66490U 25263F   26196.72838323  .00008966  00000+0  33488-3 0  9990
2 66490  43.0020 347.3567 0001727 272.6519  87.4135 15.27584388 38482
STARLINK-35663          
1 66491U 25263G   26197.16668980 -.00015550  00000+0 -55645-3 0  9998
2 66491  43.0035 345.2313 0001890 274.1229 190.5496 15.27595614  5700
STARLINK-35673          
1 66492U 25263H   26197.13612455  .00009415  00000+0  35118-3 0  9996
2 66492  43.0033 345.2595 0001414 270.8085  89.2605 15.27584682 38543
STARLINK-35597          
1 66493U 25263J   26196.44128553  .00014849  00000+0  54796-3 0  9991
2 66493  42.9980 349.5000 0001318 234.1292 125.9437 15.27585087 38436
STARLINK-35689          
1 66494U 25263K   26196.77592588  .00013219  00000+0  48897-3 0  9996
2 66494  42.9980 347.7155 0001515 270.5348  89.5330 15.27584566 38486
STARLINK-35832          
1 66495U 25263L   26196.47839798  .00005843  00000+0  22159-3 0  9998
2 66495  43.0045 348.9205 0001756 280.3185  79.7469 15.27596421 38448
STARLINK-35909          
1 66496U 25263M   26196.76307604  .00007399  00000+0  27809-3 0  9992
2 66496  43.0002 347.6143 0001029 261.4534  98.6201 15.27585789 38483
STARLINK-35899          
1 66497U 25263N   26196.72966712  .00008517  00000+0  31857-3 0  9991
2 66497  43.0015 347.3579 0001362 272.0073  88.0623 15.27588370 38484
STARLINK-35907          
1 66498U 25263P   26196.69640425  .00011690  00000+0  43354-3 0  9999
2 66498  43.0008 347.9796 0002107 273.5562  86.5049 15.27587449 38471
STARLINK-35816          
1 66499U 25263Q   26196.70670512  .00023081  00000+0  84531-3 0  9991
2 66499  42.9987 348.0539 0001861 262.2921  97.7719 15.27591749 38479
STARLINK-35894          
1 66500U 25263R   26196.80998937  .00007966  00000+0  29866-3 0  9993
2 66500  43.0043 350.5744 0001868 273.7093  86.3545 15.27585196 38455
STARLINK-35897          
1 66501U 25263S   26196.81561865  .00011408  00000+0  42351-3 0  9991
2 66501  43.0044 347.1511 0001976 270.4725  89.5901 15.27573880 38499
STARLINK-35922          
1 66502U 25263T   26196.50795712  .00014784  00000+0  54550-3 0  9992
2 66502  43.0008 349.1378 0001767 272.8925  87.1724 15.27591719 38442
STARLINK-35917          
1 66503U 25263U   26196.82332682  .00014309  00000+0  52840-3 0  9994
2 66503  43.0016 347.2045 0001949 273.8343  86.2286 15.27584605 38493
STARLINK-35916          
1 66504U 25263V   26197.15361356  .00006879  00000+0  25918-3 0  9991
2 66504  43.0119 348.8733 0005980 260.8872  99.1303 15.27583675 38502
STARLINK-34766          
1 66505U 25263W   26196.78349099  .00012226  00000+0  45302-3 0  9992
2 66505  43.0023 346.9023 0002004 278.1930  81.8695 15.27583509 38495
STARLINK-34765          
1 66506U 25263X   26197.13998252  .00007739  00000+0  29044-3 0  9992
2 66506  43.0019 345.2834 0000831 301.3961  58.6809 15.27581804 38543
STARLINK-34767          
1 66507U 25263Y   26196.70026588  .00009091  00000+0  33940-3 0  9992
2 66507  43.0013 348.0078 0001213 280.7375  79.3340 15.27585153 38476
STARLINK-35608          
1 66508U 25263Z   26196.81946690  .00009072  00000+0  33870-3 0  9991
2 66508  43.0030 347.1758 0001886 269.9669  90.0967 15.27588115 38490
STARLINK-35598          
1 66509U 25263AA  26196.84260860  .00012963  00000+0  47988-3 0  9991
2 66509  43.0030 347.3499 0002268 272.8761  87.1831 15.27571285 38493
STARLINK-35600          
1 66510U 25263AB  26196.77335381  .00011800  00000+0  43748-3 0  9995
2 66510  42.9958 347.6854 0001741 269.5662  90.4990 15.27590065 38487
