OBJECT_NAME,OBJECT_ID,EPOCH,MEAN_MOTION,ECCENTRICITY,INCLINATION,RA_OF_ASC_NODE,ARG_OF_PERICENTER,MEAN_ANOMALY,EPHEMERIS_TYPE,CLASSIFICATION_TYPE,NORAD_CAT_ID,ELEMENT_SET_NO,REV_AT_EPOCH,BSTAR,MEAN_MOTION_DOT,MEAN_MOTION_DDOT
STARLINK-35698,2025-262AB,2026-07-15T08:15:32.623776,15.27583890,.00017442,43.0023,294.8837,266.2882,93.7771,0,U,66481,999,3843,.26302499E-3,.6983E-4,0
STARLINK-35648,2025-262AC,2026-07-15T08:41:27.046176,15.27586993,.00018518,42.9983,295.0140,279.8098,80.2545,0,U,66482,999,3827,.34968786E-3,.9375E-4,0
STARLINK-35654,2025-262AD,2026-07-15T08:26:39.071040,15.27573454,.00016392,42.9962,294.9375,264.7035,95.3630,0,U,66483,999,3843,.2714128E-3,.7213E-4,0
STARLINK-35371,2025-262AE,2026-07-15T08:06:30.400704,15.27581895,.00014273,43.0015,295.6948,263.8663,96.2026,0,U,66484,999,3842,.38558706E-3,.10364E-3,0
STARLINK-34774,2025-263A,2026-07-15T17:25:10.303680,15.27587594,.00011069,43.0011,347.3395,265.8270,94.2456,0,U,66485,999,3848,.29021125E-3,.7734E-4,0
STARLINK-34844,2025-263B,2026-07-15T20:31:37.748064,15.27592473,.0002116,43.0059,346.5892,278.2556,81.8055,0,U,66486,999,3845,.39733E-3,.10692E-3,0
STARLINK-34733,2025-263C,2026-07-15T18:53:46.563072,15.27588023,.0001532,43.0024,346.9386,271.5917,88.4760,0,U,66487,999,3849,.37725631E-3,.10136E-3,0
STARLINK-35515,2025-263D,2026-07-15T11:19:39.084096,15.27580266,.00016415,43.0018,348.8687,275.2758,84.7907,0,U,66488,999,3844,.32273705E-3,.8629E-4,0
STARLINK-35696,2025-263E,2026-07-15T19:28:57.865440,15.27587609,.000401,42.9871,347.1376,38.6065,321.5073,0,U,66489,999,3849,.48176251E-3,.13023E-3,0
STARLINK-35693,2025-263F,2026-07-15T17:28:52.311072,15.27584388,.00017275,43.0020,347.3567,272.6519,87.4135,0,U,66490,999,3848,.3348833E-3,.8966E-4,0
STARLINK-35663,2025-263G,2026-07-16T04:00:01.998720,15.27595614,.000189,43.0035,345.2313,274.1229,190.5496,0,U,66491,999,570,-.55645E-3,-.1555E-3,0
STARLINK-35673,2025-263H,2026-07-16T03:16:01.161120,15.27584682,.0001414,43.0033,345.2595,270.8085,89.2605,0,U,66492,999,3854,.35118E-3,.9415E-4,0
STARLINK-35597,2025-263J,2026-07-15T10:35:27.069792,15.27585087,.0001318,42.9980,349.5000,234.1292,125.9437,0,U,66493,999,3843,.54796324E-3,.14849E-3,0
STARLINK-35689,2025-263K,2026-07-15T18:37:19.996032,15.27584566,.00015154,42.9980,347.7155,270.5348,89.5330,0,U,66494,999,3848,.48897046E-3,.13219E-3,0
STARLINK-35832,2025-263L,2026-07-15T11:28:53.585472,15.27596421,.00017569,43.0045,348.9205,280.3185,79.7469,0,U,66495,999,3844,.22158645E-3,.5843E-4,0
STARLINK-35909,2025-263M,2026-07-15T18:18:49.769856,15.27585789,.00010294,43.0002,347.6143,261.4534,98.6201,0,U,66496,999,3848,.27808991E-3,.7399E-4,0
STARLINK-35899,2025-263N,2026-07-15T17:30:43.239168,15.27588370,.00013625,43.0015,347.3579,272.0073,88.0623,0,U,66497,999,3848,.31857232E-3,.8517E-4,0
STARLINK-35907,2025-263P,2026-07-15T16:42:49.327200,15.27587449,.00021075,43.0008,347.9796,273.5562,86.5049,0,U,66498,999,3847,.43354248E-3,.1169E-3,0
STARLINK-35816,2025-263Q,2026-07-15T16:57:39.322368,15.27591749,.00018613,42.9987,348.0539,262.2921,97.7719,0,U,66499,999,3847,.84531123E-3,.23081E-3,0
STARLINK-35894,2025-263R,2026-07-15T19:26:23.081568,15.27585196,.00018689,43.0043,350.5744,273.7093,86.3545,0,U,66500,999,3845,.29865858E-3,.7966E-4,0
STARLINK-35897,2025-263S,2026-07-15T19:34:29.451360,15.27573880,.00019763,43.0044,347.1511,270.4725,89.5901,0,U,66501,999,3849,.42350905E-3,.11408E-3,0
STARLINK-35922,2025-263T,2026-07-15T12:11:27.495168,15.27591719,.00017675,43.0008,349.1378,272.8925,87.1724,0,U,66502,999,3844,.54549993E-3,.14784E-3,0
STARLINK-35917,2025-263U,2026-07-15T19:45:35.437248,15.27584605,.00019493,43.0016,347.2045,273.8343,86.2286,0,U,66503,999,3849,.52839895E-3,.14309E-3,0
STARLINK-35916,2025-263V,2026-07-16T03:41:12.211584,15.27583675,.000598,43.0119,348.8733,260.8872,99.1303,0,U,66504,999,3850,.25918E-3,.6879E-4,0
STARLINK-34766,2025-263W,2026-07-15T18:48:13.621536,15.27583509,.00020048,43.0023,346.9023,278.1930,81.8695,0,U,66505,999,3849,.45301881E-3,.12226E-3,0
STARLINK-34765,2025-263X,2026-07-16T03:21:34.489728,15.27581804,.0000831,43.0019,345.2834,301.3961,58.6809,0,U,66506,999,3854,.29044E-3,.7739E-4,0
STARLINK-34767,2025-263Y,2026-07-15T16:48:22.972032,15.27585153,.00012134,43.0013,348.0078,280.7375,79.3340,0,U,66507,999,3847,.33940452E-3,.9091E-4,0
STARLINK-35608,2025-263Z,2026-07-15T19:40:01.940160,15.27588115,.00018863,43.0030,347.1758,269.9669,90.0967,0,U,66508,999,3849,.33869883E-3,.9072E-4,0
STARLINK-35598,2025-263AA,2026-07-15T20:13:21.383040,15.27571285,.0002268,43.0030,347.3499,272.8761,87.1831,0,U,66509,999,3849,.47988E-3,.12963E-3,0
STARLINK-35600,2025-263AB,2026-07-15T18:33:37.769184,15.27590065,.00017411,42.9958,347.6854,269.5662,90.4990,0,U,66510,999,3848,.43748223E-3,.118E-3,0
